NORAD_CAT_ID,OBJECT_NAME,OBJECT_TYPE,EPOCH,MEAN_MOTION,ECCENTRICITY,INCLINATION,RA_OF_ASC_NODE,ARG_OF_PERICENTER,MEAN_ANOMALY,BSTAR,MEAN_MOTION_DOT,MEAN_MOTION_DDOT,TLE_LINE0,TLE_LINE1,TLE_LINE2,SEMIMAJOR_AXIS,PERIOD,APOGEE,PERIGEE,DECAYED
52623.0,STARLINK-3986,PAYLOAD,2024-03-05 20:33:27,15.08842896,0.000227,53.217,323.4177,129.6473,230.4719,-2.4947e-05,-6.85e-06,0.0,0 STARLINK-3986,1 52623U 22052AB  24065.85656590 -.00000685  00000-0 -24947-4 0  9991,2 52623  53.2170 323.4177 0002270 129.6473 230.4719 15.08842896100589,6917.872,95.437,541.307,538.166,0.0
52623.0,STARLINK-3986,PAYLOAD,2024-03-05 23:44:13,15.08844815,0.000134,53.2183,322.8272,90.903,269.2116,-0.00010319,-1.93e-05,0.0,0 STARLINK-3986,1 52623U 22052AB  24065.98904791 -.00001930  00000-0 -10319-3 0  9995,2 52623  53.2183 322.8272 0001340  90.9030 269.2116 15.08844815100223,6917.866,95.437,540.658,538.804,0.0
52623.0,STARLINK-3986,PAYLOAD,2024-03-06 20:24:14,15.08836344,0.0001448,53.2186,318.9625,96.655,263.4607,1.1427e-05,-1.06e-06,0.0,0 STARLINK-3986,1 52623U 22052AB  24066.85017251 -.00000106  00000-0  11427-4 0  9993,2 52623  53.2186 318.9625 0001448  96.6550 263.4607 15.08836344100738,6917.892,95.438,540.758,538.755,0.0
52623.0,STARLINK-3986,PAYLOAD,2024-03-07 09:07:19,15.08849345,0.0001488,53.2192,316.5877,105.889,254.2266,0.00010804,1.432e-05,0.0,0 STARLINK-3986,1 52623U 22052AB  24067.38008639  .00001432  00000-0  10804-3 0  9991,2 52623  53.2192 316.5877 0001488 105.8890 254.2266 15.08849345100433,6917.852,95.437,540.746,538.687,0.0
52623.0,STARLINK-3986,PAYLOAD,2024-03-08 02:36:35,15.08831596,0.0001554,53.2183,313.312,95.0936,265.0233,4.5109e-05,4.3e-06,0.0,0 STARLINK-3986,1 52623U 22052AB  24068.10873988  .00000430  00000-0  45109-4 0  9993,2 52623  53.2183 313.3120 0001554  95.0936 265.0233 15.08831596100921,6917.906,95.438,540.846,538.696,0.0
52623.0,STARLINK-3986,PAYLOAD,2024-03-09 00:51:58,15.0884073,0.0001295,53.2176,309.1526,86.5689,273.5452,6.8421e-05,8.01e-06,0.0,0 STARLINK-3986,1 52623U 22052AB  24069.03609727  .00000801  00000-0  68421-4 0  9998,2 52623  53.2176 309.1526 0001295  86.5689 273.5452 15.08840730101061,6917.878,95.438,540.639,538.847,0.0
52623.0,STARLINK-3986,PAYLOAD,2024-03-09 08:48:54,15.08846291,0.0001412,53.2173,307.6667,90.1633,269.9521,0.00012852,1.758e-05,0.0,0 STARLINK-3986,1 52623U 22052AB  24069.36729415  .00001758  00000-0  12852-3 0  9999,2 52623  53.2173 307.6667 0001412  90.1633 269.9521 15.08846291100735,6917.861,95.437,540.703,538.749,0.0
52623.0,STARLINK-3986,PAYLOAD,2024-03-10 08:39:41,15.0884347,0.0002129,53.2167,303.2024,89.4109,270.7127,0.00017536,2.504e-05,0.0,0 STARLINK-3986,1 52623U 22052AB  24070.36089991  .00002504  00000-0  17536-3 0  9993,2 52623  53.2167 303.2024 0002129  89.4109 270.7127 15.08843470101269,6917.87,95.437,541.208,538.262,0.0
52623.0,STARLINK-3986,PAYLOAD,2024-03-10 15:01:14,15.08844062,0.0001709,53.2103,302.0155,93.1248,266.9939,0.00026825,3.984e-05,0.0,0 STARLINK-3986,1 52623U 22052AB  24070.62585903  .00003984  00000-0  26825-3 0  9990,2 52623  53.2103 302.0155 0001709  93.1248 266.9939 15.08844062100928,6917.868,95.437,540.915,538.551,0.0
52623.0,STARLINK-3986,PAYLOAD,2024-03-10 19:47:23,15.08836799,0.0001458,53.2135,301.1228,86.6818,273.434,-2.8658e-05,-7.44e-06,0.0,0 STARLINK-3986,1 52623U 22052AB  24070.82458040 -.00000744  00000-0 -28658-4 0  9993,2 52623  53.2135 301.1228 0001458  86.6818 273.4340 15.08836799101338,6917.89,95.438,540.764,538.747,0.0
52623.0,STARLINK-3986,PAYLOAD,2024-03-10 21:22:46,15.08836905,0.0001442,53.2154,300.8266,87.4586,272.6571,-1.4966e-05,-5.26e-06,0.0,0 STARLINK-3986,1 52623U 22052AB  24070.89082081 -.00000526  00000-0 -14966-4 0  9993,2 52623  53.2154 300.8266 0001442  87.4586 272.6571 15.08836905100965,6917.89,95.438,540.752,538.757,0.0
52623.0,STARLINK-3986,PAYLOAD,2024-03-10 22:58:08,15.08883211,2.35e-05,53.2159,300.529,77.3593,282.7425,-0.0012615,-0.00020331,0.0,0 STARLINK-3986,1 52623U 22052AB  24070.95703779 -.00020331  00000-0 -12615-2 0  9997,2 52623  53.2159 300.5290 0000235  77.3593 282.7425 15.08883211101355,6917.748,95.435,539.776,539.451,0.0
52623.0,STARLINK-3986,PAYLOAD,2024-03-11 08:30:28,15.08845589,0.000129,53.2161,298.7449,85.1281,274.9858,0.00011017,1.466e-05,0.0,0 STARLINK-3986,1 52623U 22052AB  24071.35449640  .00001466  00000-0  11017-3 0  9998,2 52623  53.2161 298.7449 0001290  85.1281 274.9858 15.08845589101411,6917.863,95.437,540.621,538.836,0.0
52623.0,STARLINK-3986,PAYLOAD,2024-03-11 14:52:01,15.08830676,0.0001556,53.2175,297.5526,96.8045,263.3124,-2.2174e-05,-6.41e-06,0.0,0 STARLINK-3986,1 52623U 22052AB  24071.61946612 -.00000641  00000-0 -22174-4 0  9991,2 52623  53.2175 297.5526 0001556  96.8045 263.3124 15.08830676101072,6917.909,95.438,540.85,538.697,0.0
52623.0,STARLINK-3986,PAYLOAD,2024-03-12 08:21:15,15.0884498,0.0001835,53.2163,294.2825,90.3256,269.7947,9.2537e-05,1.185e-05,0.0,0 STARLINK-3986,1 52623U 22052AB  24072.34810030  .00001185  00000-0  92537-4 0  9998,2 52623  53.2163 294.2825 0001835  90.3256 269.7947 15.08844980101568,6917.865,95.437,541.0,538.461,0.0
52623.0,STARLINK-3986,PAYLOAD,2024-03-12 14:42:48,15.08842463,0.0001721,53.2149,293.0941,89.4653,270.6537,0.00022145,3.238e-05,0.0,0 STARLINK-3986,1 52623U 22052AB  24072.61306147  .00003238  00000-0  22145-3 0  9995,2 52623  53.2149 293.0941 0001721  89.4653 270.6537 15.08842463101225,6917.873,95.437,540.928,538.547,0.0
52623.0,STARLINK-3986,PAYLOAD,2024-03-13 00:15:07,15.08840218,0.0001499,53.2155,291.3102,88.2737,271.8427,9.5531e-05,1.233e-05,0.0,0 STARLINK-3986,1 52623U 22052AB  24073.01050262  .00001233  00000-0  95531-4 0  9997,2 52623  53.2155 291.3102 0001499  88.2737 271.8427 15.08840218101669,6917.88,95.438,540.782,538.708,0.0
52623.0,STARLINK-3986,PAYLOAD,2024-03-14 19:10:32,15.08838879,0.00016,53.2171,283.2772,106.4512,253.6656,9.3855e-05,1.206e-05,0.0,0 STARLINK-3986,1 52623U 22052AB  24074.79898497  .00001206  00000-0  93855-4 0  9990,2 52623  53.2171 283.2772 0001600 106.4512 253.6656 15.08838879101930,6917.884,95.438,540.856,538.642,0.0
52623.0,STARLINK-3986,PAYLOAD,2024-03-15 12:39:46,15.08840703,0.0001612,53.217,280.009,96.276,263.8415,7.726e-05,9.42e-06,0.0,0 STARLINK-3986,1 52623U 22052AB  24075.52762506  .00000942  00000-0  77260-4 0  9991,2 52623  53.2170 280.0090 0001612  96.2760 263.8415 15.08840703101666,6917.878,95.438,540.858,538.628,0.0
52623.0,STARLINK-3986,PAYLOAD,2024-03-16 20:27:30,15.08837057,0.0001272,53.2161,274.0607,111.7643,248.3484,6.3155e-05,7.17e-06,0.0,0 STARLINK-3986,1 52623U 22052AB  24076.85243083  .00000717  00000-0  63155-4 0  9990,2 52623  53.2161 274.0607 0001272 111.7643 248.3484 15.08837057102245,6917.889,95.438,540.634,538.874,0.0
52623.0,STARLINK-3986,PAYLOAD,2024-03-16 22:02:53,15.08836729,0.0001221,53.216,273.7634,106.0206,254.0921,5.8098e-05,6.37e-06,0.0,0 STARLINK-3986,1 52623U 22052AB  24076.91867145  .00000637  00000-0  58098-4 0  9999,2 52623  53.2160 273.7634 0001221 106.0206 254.0921 15.08836729101879,6917.89,95.438,540.6,538.911,0.0
52623.0,STARLINK-3986,PAYLOAD,2024-03-17 21:53:39,15.08843338,0.0001252,53.2164,269.303,99.0415,261.0718,0.00012486,1.7e-05,0.0,0 STARLINK-3986,1 52623U 22052AB  24077.91226757  .00001700  00000-0  12486-3 0  9990,2 52623  53.2164 269.3030 0001252  99.0415 261.0718 15.08843338102025,6917.87,95.437,540.601,538.869,0.0
52623.0,STARLINK-3986,PAYLOAD,2024-03-18 12:12:08,15.08842046,0.00013,53.2166,266.6275,96.5035,263.6105,0.00013383,1.843e-05,0.0,0 STARLINK-3986,1 52623U 22052AB  24078.50842829  .00001843  00000-0  13383-3 0  9995,2 52623  53.2166 266.6275 0001300  96.5035 263.6105 15.08842046102115,6917.874,95.437,540.638,538.84,0.0
52623.0,STARLINK-3986,PAYLOAD,2024-03-18 20:09:03,15.08842762,0.0001239,53.2164,265.1402,96.9749,263.1384,0.00012532,1.707e-05,0.0,0 STARLINK-3986,1 52623U 22052AB  24078.83962800  .00001707  00000-0  12532-3 0  9997,2 52623  53.2164 265.1402 0001239  96.9749 263.1384 15.08842762102160,6917.872,95.437,540.594,538.88,0.0
52623.0,STARLINK-3986,PAYLOAD,2024-03-19 12:02:55,15.08847807,0.0001263,53.2169,262.1679,87.0836,273.03,6.9923e-05,8.25e-06,0.0,0 STARLINK-3986,1 52623U 22052AB  24079.50202744  .00000825  00000-0  69923-4 0  9993,2 52623  53.2169 262.1679 0001263  87.0836 273.0300 15.08847807102267,6917.857,95.437,540.595,538.848,0.0
52623.0,STARLINK-3986,PAYLOAD,2024-03-19 18:24:27,15.08849059,0.0001293,53.2167,260.9783,85.0069,275.1071,7.6272e-05,9.26e-06,0.0,0 STARLINK-3986,1 52623U 22052AB  24079.76698530  .00000926  00000-0  76272-4 0  9990,2 52623  53.2167 260.9783 0001293  85.0069 275.1071 15.08849059102681,6917.853,95.437,540.612,538.823,0.0
52623.0,STARLINK-3986,PAYLOAD,2024-03-20 11:53:42,15.08842896,0.0001493,53.2162,257.7084,69.1142,291.001,8.1483e-05,1.009e-05,0.0,0 STARLINK-3986,1 52623U 22052AB  24080.49562905  .00001009  00000-0  81483-4 0  9991,2 52623  53.2162 257.7084 0001493  69.1142 291.0010 15.08842896102414,6917.872,95.437,540.769,538.704,0.0
52623.0,STARLINK-3986,PAYLOAD,2024-03-20 18:15:15,15.08836901,0.0001194,53.2161,256.5173,86.6103,273.5026,6.7588e-06,-1.8e-06,0.0,0 STARLINK-3986,1 52623U 22052AB  24080.76059272 -.00000180  00000-0  67588-5 0  9990,2 52623  53.2161 256.5173 0001194  86.6103 273.5026 15.08836901102836,6917.89,95.438,540.581,538.929,0.0
52623.0,STARLINK-3986,PAYLOAD,2024-03-21 14:55:15,15.08840345,0.0001182,53.2162,252.6511,90.3431,269.7697,3.8976e-05,3.33e-06,0.0,0 STARLINK-3986,1 52623U 22052AB  24081.62171083  .00000333  00000-0  38976-4 0  9998,2 52623  53.2162 252.6511 0001182  90.3431 269.7697 15.08840345102583,6917.879,95.438,540.562,538.927,0.0
52623.0,STARLINK-3986,PAYLOAD,2024-03-21 18:06:01,15.08842864,0.0001221,53.2164,252.0564,94.7461,265.367,6.0221e-05,6.71e-06,0.0,0 STARLINK-3986,1 52623U 22052AB  24081.75418848  .00000671  00000-0  60221-4 0  9998,2 52623  53.2164 252.0564 0001221  94.7461 265.3670 15.08842864102606,6917.872,95.437,540.581,538.892,0.0
